SENTINEL-3A             
1 41335U 16011A   16071.09149295 -.00000044  00000-0  00000+0 0  9997
2 41335  98.6198 139.1447 0001592  47.0292 313.1068 14.26733490  3328
BREEZE-KM R/B           
1 41336U 16011B   16071.20700682  .00003743  00000-0  18347-3 0  9999
2 41336  98.6830 142.1412 0243719 232.8327 125.0425 14.96590588  3503
ASTRO-H (HITOMI)        
1 41337U 16012A   16070.47245173  .00001793  00000-0  14080-3 0  9991
2 41337  31.0020 176.6075 0011037 135.5416 224.6107 14.98157100  3321
CHUBUSAT 2              
1 41338U 16012B   16070.58963851  .00001653  00000-0  12547-3 0  9995
2 41338  31.0021 175.6245 0013927 151.3788 208.7620 14.99238042  3340
CHUBUSAT 3              
1 41339U 16012C   16070.58606377  .00001515  00000-0  11368-3 0  9990
2 41339  31.0102 175.6027 0013936 157.4419 202.6839 14.99478056  3310
HORYU-IV                
1 41340U 16012D   16070.51521169  .00002567  00000-0  19574-3 0  9995
2 41340  31.0027 175.9809 0014428 160.3911 199.7280 14.99785155  3324
H-2A R/B                
1 41341U 16012E   16070.59220977  .00002248  00000-0  15295-3 0  9999
2 41341  30.6247 174.9753 0018633 153.4283 206.7311 15.03544016  3316
H-2A DEB                
1 41342U 16012F   16070.52172529  .00063107  00000-0  48700-2 0  9999
2 41342  31.0038 176.0382 0010398 127.9881 232.2131 15.00592927  3349
SES 9                   
1 41380U 16013A   16069.75178052 -.00000206  00000-0  00000+0 0  9992
2 41380  14.1605 346.2311 6105953 180.8558  13.4763  1.68822085    92
FALCON 9 R/B            
1 41381U 16013B   16070.31440372 -.00000587  00000-0  00000+0 0  9996
2 41381  27.9132 346.1829 7504336 181.1126 174.9346  1.97384188    96
EUTELSAT 65 WEST A      
1 41382U 16014A   16071.00921752 -.00000086  00000-0  00000+0 0  9995
2 41382   0.0951  78.1537 5270773 174.6194 281.2676  1.89250984    30
ARIANE 5 R/B            
1 41383U 16014B   16069.53842649 -.00000067  00000-0  00000+0 0  9997
2 41383   0.4436  79.5784 7285792 172.7971 249.4597  2.29013627    04
2016-015A               
1 41384U 16015A   16070.72309800  .00000024  00000-0  00000+0 0  9991
2 41384  17.8739 276.1758 6051599 178.6394  32.1458  3.97361314    17
2016-015B               
1 41385U 16015B   16070.72580749  .00000022  00000-0  00000+0 0  9993
2 41385  17.7526 275.8236 6091928 179.0909  29.9014  3.91283026    03
